IRIDIUM 36 [-]          
1 24967U 97056C   23287.48933186  .00001280  00000+0  43034-3 0  9996
2 24967  86.3944  69.8041 0002051  96.2379 263.9051 14.36449870364371
IRIDIUM 39 [-]          
1 25042U 97069D   23287.59875290  .00001509  00000+0  40523-3 0  9992
2 25042  86.3872 113.0721 0018231 180.3743 179.7449 14.47411752360449
IRIDIUM 38 [-]          
1 25043U 97069E   23287.57505950  .00000859  00000+0  28387-3 0  9995
2 25043  86.3939 130.2872 0001980  22.8998 337.2287 14.36914302358093
IRIDIUM 42 [-]          
1 25077U 97077A   23287.54570491  .00000788  00000+0  26879-3 0  9995
2 25077  86.3954 135.7227 0001755  69.5671 290.5713 14.35228023353432
IRIDIUM 44 [-]          
1 25078U 97077B   23287.60364682  .00000965  00000+0  30651-3 0  9996
2 25078  86.3917 119.2679 0001012 151.5072 208.6182 14.39017173355712
IRIDIUM 45 [-]          
1 25104U 97082A   23287.54668369  .00017169  00000+0  10977-2 0  9996
2 25104  86.3781 337.3690 0181128  52.3700 309.3811 14.95857403359903
IRIDIUM 24 [-]          
1 25105U 97082B   23287.57777764  .00001039  00000+0  31864-3 0  9998
2 25105  86.3938 339.2962 0009583 302.3453  57.6818 14.40776437355114
IRIDIUM 51 [-]          
1 25262U 98018A   23287.58518984  .00018393  00000+0  10180-2 0  9998
2 25262  86.3972 347.8785 0165215   7.0644 353.2860 15.02719201354284
